[{"OBJECT_NAME":"ONEWEB-0502","OBJECT_ID":"2022-138H","EPOCH":"2026-01-05T07:08:22.907040","MEAN_MOTION":13.19725278,"ECCENTRICITY":0.00019098,"INCLINATION":87.9226,"RA_OF_ASC_NODE":337.3551,"ARG_OF_PERICENTER":74.127,"MEAN_ANOMALY":286.0074,"EPHEMERIS_TYPE":0,"CLASSIFICATION_TYPE":"U","NORAD_CAT_ID":54120,"ELEMENT_SET_NO":999,"REV_AT_EPOCH":15534,"BSTAR":0.0003182196,"MEAN_MOTION_DOT":1.4e-6,"MEAN_MOTION_DDOT":0},{"OBJECT_NAME":"ONEWEB-0503","OBJECT_ID":"2022-138J","EPOCH":"2026-01-05T06:52:27.938208","MEAN_MOTION":13.19724192,"ECCENTRICITY":0.0002009,"INCLINATION":87.9226,"RA_OF_ASC_NODE":337.3614,"ARG_OF_PERICENTER":83.5765,"MEAN_ANOMALY":276.5596,"EPHEMERIS_TYPE":0,"CLASSIFICATION_TYPE":"U","NORAD_CAT_ID":54121,"ELEMENT_SET_NO":999,"REV_AT_EPOCH":15533,"BSTAR":-8.675062e-6,"MEAN_MOTION_DOT":9.0e-8,"MEAN_MOTION_DDOT":0},{"OBJECT_NAME":"ONEWEB-0504","OBJECT_ID":"2022-138K","EPOCH":"2026-01-05T06:34:16.587840","MEAN_MOTION":13.19725215,"ECCENTRICITY":0.00019393,"INCLINATION":87.9224,"RA_OF_ASC_NODE":337.3788,"ARG_OF_PERICENTER":75.2775,"MEAN_ANOMALY":284.8573,"EPHEMERIS_TYPE":0,"CLASSIFICATION_TYPE":"U","NORAD_CAT_ID":54122,"ELEMENT_SET_NO":999,"REV_AT_EPOCH":15534,"BSTAR":0.00025122541,"MEAN_MOTION_DOT":1.14e-6,"MEAN_MOTION_DDOT":0},{"OBJECT_NAME":"ONEWEB-0505","OBJECT_ID":"2022-138L","EPOCH":"2026-01-05T04:40:32.540448","MEAN_MOTION":13.19723506,"ECCENTRICITY":0.00019303,"INCLINATION":87.9229,"RA_OF_ASC_NODE":337.3858,"ARG_OF_PERICENTER":66.7343,"MEAN_ANOMALY":293.3993,"EPHEMERIS_TYPE":0,"CLASSIFICATION_TYPE":"U","NORAD_CAT_ID":54123,"ELEMENT_SET_NO":999,"REV_AT_EPOCH":15531,"BSTAR":4.2973575e-5,"MEAN_MOTION_DOT":3.0e-7,"MEAN_MOTION_DDOT":0},{"OBJECT_NAME":"ONEWEB-0506","OBJECT_ID":"2022-138M","EPOCH":"2026-01-05T07:42:30.617280","MEAN_MOTION":13.19724905,"ECCENTRICITY":0.00018244,"INCLINATION":87.9227,"RA_OF_ASC_NODE":337.3577,"ARG_OF_PERICENTER":76.5591,"MEAN_ANOMALY":283.5745,"EPHEMERIS_TYPE":0,"CLASSIFICATION_TYPE":"U","NORAD_CAT_ID":54124,"ELEMENT_SET_NO":999,"REV_AT_EPOCH":15532,"BSTAR":0.00013081467,"MEAN_MOTION_DOT":6.5e-7,"MEAN_MOTION_DDOT":0},{"OBJECT_NAME":"ONEWEB-0507","OBJECT_ID":"2022-138N","EPOCH":"2026-01-05T04:33:43.658496","MEAN_MOTION":13.197253,"ECCENTRICITY":0.00017253,"INCLINATION":87.9211,"RA_OF_ASC_NODE":337.4149,"ARG_OF_PERICENTER":75.0116,"MEAN_ANOMALY":285.1208,"EPHEMERIS_TYPE":0,"CLASSIFICATION_TYPE":"U","NORAD_CAT_ID":54125,"ELEMENT_SET_NO":999,"REV_AT_EPOCH":15535,"BSTAR":0.00026197282,"MEAN_MOTION_DOT":1.18e-6,"MEAN_MOTION_DDOT":0},{"OBJECT_NAME":"ONEWEB-0508","OBJECT_ID":"2022-138P","EPOCH":"2026-01-05T04:29:09.787776","MEAN_MOTION":13.19724095,"ECCENTRICITY":0.00016633,"INCLINATION":87.9218,"RA_OF_ASC_NODE":337.4112,"ARG_OF_PERICENTER":70.6586,"MEAN_ANOMALY":289.4727,"EPHEMERIS_TYPE":0,"CLASSIFICATION_TYPE":"U","NORAD_CAT_ID":54126,"ELEMENT_SET_NO":999,"REV_AT_EPOCH":15533,"BSTAR":0.00030470561,"MEAN_MOTION_DOT":1.35e-6,"MEAN_MOTION_DDOT":0},{"OBJECT_NAME":"ONEWEB-0509","OBJECT_ID":"2022-138Q","EPOCH":"2026-01-05T07:31:08.192064","MEAN_MOTION":13.19726104,"ECCENTRICITY":0.0001744,"INCLINATION":87.9227,"RA_OF_ASC_NODE":337.3588,"ARG_OF_PERICENTER":77.9724,"MEAN_ANOMALY":282.1604,"EPHEMERIS_TYPE":0,"CLASSIFICATION_TYPE":"U","NORAD_CAT_ID":54127,"ELEMENT_SET_NO":999,"REV_AT_EPOCH":15532,"BSTAR":8.4849666e-5,"MEAN_MOTION_DOT":4.7e-7,"MEAN_MOTION_DDOT":0},{"OBJECT_NAME":"ONEWEB-0510","OBJECT_ID":"2022-138R","EPOCH":"2026-01-05T06:06:19.934496","MEAN_MOTION":13.20771902,"ECCENTRICITY":0.00018079,"INCLINATION":87.9228,"RA_OF_ASC_NODE":306.9349,"ARG_OF_PERICENTER":94.1172,"MEAN_ANOMALY":266.0168,"EPHEMERIS_TYPE":0,"CLASSIFICATION_TYPE":"U","NORAD_CAT_ID":54128,"ELEMENT_SET_NO":999,"REV_AT_EPOCH":15777,"BSTAR":0.0002463745,"MEAN_MOTION_DOT":1.13e-6,"MEAN_MOTION_DDOT":0},{"OBJECT_NAME":"ONEWEB-0511","OBJECT_ID":"2022-138S","EPOCH":"2026-01-05T07:26:35.405664","MEAN_MOTION":13.19725326,"ECCENTRICITY":0.00020441,"INCLINATION":87.9228,"RA_OF_ASC_NODE":337.3632,"ARG_OF_PERICENTER":82.1907,"MEAN_ANOMALY":277.9458,"EPHEMERIS_TYPE":0,"CLASSIFICATION_TYPE":"U","NORAD_CAT_ID":54129,"ELEMENT_SET_NO":999,"REV_AT_EPOCH":15535,"BSTAR":-0.00010319068,"MEAN_MOTION_DOT":-2.8e-7,"MEAN_MOTION_DDOT":0},{"OBJECT_NAME":"ONEWEB-0512","OBJECT_ID":"2022-138T","EPOCH":"2026-01-05T07:15:12.193344","MEAN_MOTION":13.19723981,"ECCENTRICITY":0.00019267,"INCLINATION":87.9218,"RA_OF_ASC_NODE":337.3862,"ARG_OF_PERICENTER":71.8047,"MEAN_ANOMALY":288.3296,"EPHEMERIS_TYPE":0,"CLASSIFICATION_TYPE":"U","NORAD_CAT_ID":54130,"ELEMENT_SET_NO":999,"REV_AT_EPOCH":15532,"BSTAR":0.00011935343,"MEAN_MOTION_DOT":6.1e-7,"MEAN_MOTION_DDOT":0},{"OBJECT_NAME":"ONEWEB-0513","OBJECT_ID":"2022-138U","EPOCH":"2026-01-05T07:09:44.934336","MEAN_MOTION":13.20260874,"ECCENTRICITY":0.00024039,"INCLINATION":87.923,"RA_OF_ASC_NODE":337.3463,"ARG_OF_PERICENTER":65.9455,"MEAN_ANOMALY":294.1929,"EPHEMERIS_TYPE":0,"CLASSIFICATION_TYPE":"U","NORAD_CAT_ID":54131,"ELEMENT_SET_NO":999,"REV_AT_EPOCH":15522,"BSTAR":-7.6819295e-5,"MEAN_MOTION_DOT":-1.8e-7,"MEAN_MOTION_DDOT":0},{"OBJECT_NAME":"ONEWEB-0514","OBJECT_ID":"2022-138V","EPOCH":"2026-01-05T07:37:57.730656","MEAN_MOTION":13.19725758,"ECCENTRICITY":0.0001791,"INCLINATION":87.9226,"RA_OF_ASC_NODE":337.3697,"ARG_OF_PERICENTER":84.1806,"MEAN_ANOMALY":275.9531,"EPHEMERIS_TYPE":0,"CLASSIFICATION_TYPE":"U","NORAD_CAT_ID":54132,"ELEMENT_SET_NO":999,"REV_AT_EPOCH":15534,"BSTAR":6.3893935e-5,"MEAN_MOTION_DOT":3.9e-7,"MEAN_MOTION_DDOT":0},{"OBJECT_NAME":"ONEWEB-0515","OBJECT_ID":"2022-138W","EPOCH":"2026-01-05T07:37:14.369088","MEAN_MOTION":13.20771899,"ECCENTRICITY":0.00011838,"INCLINATION":87.9231,"RA_OF_ASC_NODE":306.9099,"ARG_OF_PERICENTER":105.8205,"MEAN_ANOMALY":254.3059,"EPHEMERIS_TYPE":0,"CLASSIFICATION_TYPE":"U","NORAD_CAT_ID":54133,"ELEMENT_SET_NO":999,"REV_AT_EPOCH":15780,"BSTAR":0.0001831802,"MEAN_MOTION_DOT":8.7e-7,"MEAN_MOTION_DDOT":0},{"OBJECT_NAME":"ONEWEB-0516","OBJECT_ID":"2022-138X","EPOCH":"2026-01-05T07:01:33.306240","MEAN_MOTION":13.19723946,"ECCENTRICITY":0.00016275,"INCLINATION":87.9211,"RA_OF_ASC_NODE":337.3918,"ARG_OF_PERICENTER":79.4619,"MEAN_ANOMALY":280.6697,"EPHEMERIS_TYPE":0,"CLASSIFICATION_TYPE":"U","NORAD_CAT_ID":54134,"ELEMENT_SET_NO":999,"REV_AT_EPOCH":15534,"BSTAR":1.0727009e-5,"MEAN_MOTION_DOT":1.7e-7,"MEAN_MOTION_DDOT":0},{"OBJECT_NAME":"ONEWEB-0517","OBJECT_ID":"2022-138Y","EPOCH":"2026-01-05T06:31:59.909952","MEAN_MOTION":13.19724276,"ECCENTRICITY":0.00020542,"INCLINATION":87.9227,"RA_OF_ASC_NODE":337.3796,"ARG_OF_PERICENTER":84.2005,"MEAN_ANOMALY":275.9362,"EPHEMERIS_TYPE":0,"CLASSIFICATION_TYPE":"U","NORAD_CAT_ID":54135,"ELEMENT_SET_NO":999,"REV_AT_EPOCH":15534,"BSTAR":-7.1686238e-5,"MEAN_MOTION_DOT":-1.6e-7,"MEAN_MOTION_DDOT":0},{"OBJECT_NAME":"ONEWEB-0518","OBJECT_ID":"2022-138Z","EPOCH":"2026-01-05T06:59:17.537280","MEAN_MOTION":13.19725557,"ECCENTRICITY":0.00017426,"INCLINATION":87.9212,"RA_OF_ASC_NODE":337.3935,"ARG_OF_PERICENTER":76.1049,"MEAN_ANOMALY":284.0278,"EPHEMERIS_TYPE":0,"CLASSIFICATION_TYPE":"U","NORAD_CAT_ID":54136,"ELEMENT_SET_NO":999,"REV_AT_EPOCH":15534,"BSTAR":-3.1530066e-5,"MEAN_MOTION_DOT":0,"MEAN_MOTION_DDOT":0}]
