ONEWEB-0502             
1 54120U 22138H   26005.29748735  .00000140  00000+0  31822-3 0  9999
2 54120  87.9226 337.3551 0001909  74.1270 286.0074 13.19725278155345
ONEWEB-0503             
1 54121U 22138J   26005.28643447  .00000009  00000+0 -86751-5 0  9991
2 54121  87.9226 337.3614 0002009  83.5765 276.5596 13.19724192155337
ONEWEB-0504             
1 54122U 22138K   26005.27380310  .00000114  00000+0  25123-3 0  9998
2 54122  87.9224 337.3788 0001939  75.2775 284.8573 13.19725215155343
ONEWEB-0505             
1 54123U 22138L   26005.19482107  .00000030  00000+0  42974-4 0  9998
2 54123  87.9229 337.3858 0001930  66.7343 293.3993 13.19723506155313
ONEWEB-0506             
1 54124U 22138M   26005.32118770  .00000065  00000+0  13081-3 0  9990
2 54124  87.9227 337.3577 0001824  76.5591 283.5745 13.19724905155327
ONEWEB-0507             
1 54125U 22138N   26005.19008864  .00000118  00000+0  26197-3 0  9999
2 54125  87.9211 337.4149 0001725  75.0116 285.1208 13.19725300155359
ONEWEB-0508             
1 54126U 22138P   26005.18691884  .00000135  00000+0  30471-3 0  9998
2 54126  87.9218 337.4112 0001663  70.6586 289.4727 13.19724095155331
ONEWEB-0509             
1 54127U 22138Q   26005.31328926  .00000047  00000+0  84850-4 0  9991
2 54127  87.9227 337.3588 0001744  77.9724 282.1604 13.19726104155328
ONEWEB-0510             
1 54128U 22138R   26005.25439739  .00000113  00000+0  24637-3 0  9990
2 54128  87.9228 306.9349 0001807  94.1172 266.0168 13.20771902157770
ONEWEB-0511             
1 54129U 22138S   26005.31013201 -.00000028  00000+0 -10319-3 0  9999
2 54129  87.9228 337.3632 0002044  82.1907 277.9458 13.19725326155353
ONEWEB-0512             
1 54130U 22138T   26005.30222446  .00000061  00000+0  11935-3 0  9993
2 54130  87.9218 337.3862 0001926  71.8047 288.3296 13.19723981155325
ONEWEB-0513             
1 54131U 22138U   26005.29843674 -.00000018  00000+0 -76819-4 0  9991
2 54131  87.9230 337.3463 0002403  65.9455 294.1929 13.20260874155221
ONEWEB-0514             
1 54132U 22138V   26005.31802929  .00000039  00000+0  63894-4 0  9993
2 54132  87.9226 337.3697 0001791  84.1806 275.9531 13.19725758155342
ONEWEB-0515             
1 54133U 22138W   26005.31752742  .00000087  00000+0  18318-3 0  9994
2 54133  87.9231 306.9099 0001183 105.8205 254.3059 13.20771899157804
ONEWEB-0516             
1 54134U 22138X   26005.29274660  .00000017  00000+0  10727-4 0  9990
2 54134  87.9211 337.3918 0001627  79.4619 280.6697 13.19723946155344
ONEWEB-0517             
1 54135U 22138Y   26005.27222118 -.00000016  00000+0 -71686-4 0  9992
2 54135  87.9227 337.3796 0002054  84.2005 275.9362 13.19724276155347
ONEWEB-0518             
1 54136U 22138Z   26005.29117520  .00000000  00000+0 -31530-4 0  9991
2 54136  87.9212 337.3935 0001742  76.1049 284.0278 13.19725557155348
